NORAD_CAT_ID,OBJECT_NAME,OBJECT_TYPE,EPOCH,MEAN_MOTION,ECCENTRICITY,INCLINATION,RA_OF_ASC_NODE,ARG_OF_PERICENTER,MEAN_ANOMALY,BSTAR,MEAN_MOTION_DOT,MEAN_MOTION_DDOT,TLE_LINE0,TLE_LINE1,TLE_LINE2,SEMIMAJOR_AXIS,PERIOD,APOGEE,PERIGEE,DECAYED
53936.0,STARLINK-4791,PAYLOAD,2023-07-26 21:10:33,15.08841772,0.0001115,53.2163,274.1359,95.1104,265.0015,0.00010378,1.364e-05,0.0,0 STARLINK-4791,1 53936U 22119BC  23207.88233491  .00001364  00000-0  10378-3 0  9999,2 53936  53.2163 274.1359 0001115  95.1104 265.0015 15.08841772 47606,6917.875,95.437,540.511,538.969,0.0
53936.0,STARLINK-4791,PAYLOAD,2023-07-27 03:32:06,15.08839569,0.0001197,53.2167,272.9467,98.4648,261.648,8.2824e-05,1.031e-05,0.0,0 STARLINK-4791,1 53936U 22119BC  23208.14729700  .00001031  00000-0  82824-4 0  9999,2 53936  53.2167 272.9467 0001197  98.4648 261.6480 15.08839569 47211,6917.882,95.438,540.575,538.919,0.0
53936.0,STARLINK-4791,PAYLOAD,2023-07-27 05:07:29,15.08838339,0.0001207,53.2168,272.6491,98.8785,261.2343,7.0218e-05,8.3e-06,0.0,0 STARLINK-4791,1 53936U 22119BC  23208.21353833  .00000830  00000-0  70218-4 0  9997,2 53936  53.2168 272.6491 0001207  98.8785 261.2343 15.08838339 47650,6917.885,95.438,540.585,538.915,0.0
53936.0,STARLINK-4791,PAYLOAD,2023-07-27 21:01:20,15.08842522,0.0001176,53.2166,269.6757,105.0814,255.0309,5.9808e-05,6.64e-06,0.0,0 STARLINK-4791,1 53936U 22119BC  23208.87593537  .00000664  00000-0  59808-4 0  9993,2 53936  53.2166 269.6757 0001176 105.0814 255.0309 15.08842522 47751,6917.873,95.437,540.551,538.924,0.0
53936.0,STARLINK-4791,PAYLOAD,2023-07-28 12:55:12,15.08837285,0.0001362,53.2151,266.7011,76.1293,283.9851,5.7851e-06,-1.96e-06,0.0,0 STARLINK-4791,1 53936U 22119BC  23209.53834232 -.00000196  00000-0  57851-5 0  9995,2 53936  53.2151 266.7011 0001362  76.1293 283.9851 15.08837285 47855,6917.889,95.438,540.696,538.811,0.0
53936.0,STARLINK-4791,PAYLOAD,2023-07-30 03:04:28,15.08834604,0.0001329,53.2161,259.5645,77.8857,282.2284,5.2171e-05,5.42e-06,0.0,0 STARLINK-4791,1 53936U 22119BC  23211.12810427  .00000542  00000-0  52171-4 0  9996,2 53936  53.2161 259.5645 0001329  77.8857 282.2284 15.08834604 47669,6917.897,95.438,540.681,538.842,0.0
53936.0,STARLINK-4791,PAYLOAD,2023-07-31 09:16:47,15.08843013,0.0001157,53.2152,253.913,82.9393,277.1731,7.6047e-05,9.23e-06,0.0,0 STARLINK-4791,1 53936U 22119BC  23212.38665926  .00000923  00000-0  76047-4 0  9998,2 53936  53.2152 253.9130 0001157  82.9393 277.1731 15.08843013 47852,6917.871,95.437,540.537,538.936,0.0
53936.0,STARLINK-4791,PAYLOAD,2023-07-31 23:35:15,15.08836548,0.0001253,53.2151,251.2362,88.8254,271.2882,5.8911e-05,6.5e-06,0.0,0 STARLINK-4791,1 53936U 22119BC  23212.98282347  .00000650  00000-0  58911-4 0  9993,2 53936  53.2151 251.2362 0001253  88.8254 271.2882 15.08836548 47944,6917.891,95.438,540.623,538.889,0.0
53936.0,STARLINK-4791,PAYLOAD,2023-08-02 02:36:49,15.088351,0.0001151,53.2149,246.1819,86.4899,273.6225,7.8589e-06,-1.63e-06,0.0,0 STARLINK-4791,1 53936U 22119BC  23214.10890732 -.00000163  00000-0  78589-5 0  9996,2 53936  53.2149 246.1819 0001151  86.4899 273.6225 15.08835100 48117,6917.895,95.438,540.557,538.964,0.0
53936.0,STARLINK-4791,PAYLOAD,2023-08-03 08:49:08,15.08839512,0.000116,53.2154,240.5323,90.1199,269.9926,7.6615e-05,9.32e-06,0.0,0 STARLINK-4791,1 53936U 22119BC  23215.36746479  .00000932  00000-0  76615-4 0  9993,2 53936  53.2154 240.5323 0001160  90.1199 269.9926 15.08839512 48304,6917.882,95.438,540.549,538.944,0.0
53936.0,STARLINK-4791,PAYLOAD,2023-08-04 02:18:24,15.08831308,0.0001154,53.2156,237.2614,90.6394,269.4731,1.812e-05,1e-08,0.0,0 STARLINK-4791,1 53936U 22119BC  23216.09611394  .00000001  00000-0  18120-4 0  9995,2 53936  53.2156 237.2614 0001154  90.6394 269.4731 15.08831308 48413,6917.907,95.438,540.57,538.974,0.0
53936.0,STARLINK-4791,PAYLOAD,2023-08-05 02:09:10,15.08840083,0.0001248,53.2158,232.8008,103.3528,256.7603,4.0968e-05,3.64e-06,0.0,0 STARLINK-4791,1 53936U 22119BC  23217.08970992  .00000364  00000-0  40968-4 0  9994,2 53936  53.2158 232.8008 0001248 103.3528 256.7603 15.08840083 48561,6917.88,95.438,540.608,538.882,0.0
53936.0,STARLINK-4791,PAYLOAD,2023-08-06 08:21:30,15.08837755,0.0001102,53.2153,227.1501,89.4417,270.6701,6.5234e-05,7.5e-06,0.0,0 STARLINK-4791,1 53936U 22119BC  23218.34827147  .00000750  00000-0  65234-4 0  9999,2 53936  53.2153 227.1501 0001102  89.4417 270.6701 15.08837755 48758,6917.887,95.438,540.515,538.99,0.0
53936.0,STARLINK-4791,PAYLOAD,2023-08-07 09:47:40,15.08842836,0.0001096,53.215,222.3918,87.7248,272.3869,8.2999e-06,-1.56e-06,0.0,0 STARLINK-4791,1 53936U 22119BC  23219.40811022 -.00000156  00000-0  82999-5 0  9991,2 53936  53.2150 222.3918 0001096  87.7248 272.3869 15.08842836 48917,6917.872,95.437,540.495,538.979,0.0
53936.0,STARLINK-4791,PAYLOAD,2023-08-08 23:56:56,15.08837311,0.0001108,53.2144,215.2546,86.9684,273.1435,2.8387e-05,1.64e-06,0.0,0 STARLINK-4791,1 53936U 22119BC  23220.99787181  .00000164  00000-0  28387-4 0  9993,2 53936  53.2144 215.2546 0001108  86.9684 273.1435 15.08837311 49154,6917.889,95.438,540.52,538.987,0.0
53936.0,STARLINK-4791,PAYLOAD,2023-08-10 09:20:02,15.0883794,0.0001227,53.2149,209.0096,92.0965,268.0168,-8.3313e-06,-4.2e-06,0.0,0 STARLINK-4791,1 53936U 22119BC  23222.38891386 -.00000420  00000-0 -83313-5 0  9999,2 53936  53.2149 209.0096 0001227  92.0965 268.0168 15.08837940 49369,6917.887,95.438,540.601,538.903,0.0
53936.0,STARLINK-4791,PAYLOAD,2023-08-11 15:32:22,15.08834431,0.0001183,53.2154,203.3595,88.7343,271.3785,3.0366e-05,1.95e-06,0.0,0 STARLINK-4791,1 53936U 22119BC  23223.64747729  .00000195  00000-0  30366-4 0  9996,2 53936  53.2154 203.3595 0001183  88.7343 271.3785 15.08834431 49554,6917.897,95.438,540.581,538.944,0.0
53936.0,STARLINK-4791,PAYLOAD,2023-08-12 21:44:41,15.08836405,0.0001124,53.2153,197.71,88.2135,271.8986,5.4873e-05,5.86e-06,0.0,0 STARLINK-4791,1 53936U 22119BC  23224.90604021  .00000586  00000-0  54873-4 0  9996,2 53936  53.2153 197.7100 0001124  88.2135 271.8986 15.08836405 49742,6917.891,95.438,540.534,538.979,0.0
53936.0,STARLINK-4791,PAYLOAD,2023-08-13 07:17:00,15.088442,0.0001124,53.2154,195.9258,88.8314,271.2807,5.5542e-05,5.96e-06,0.0,0 STARLINK-4791,1 53936U 22119BC  23225.30347494  .00000596  00000-0  55542-4 0  9994,2 53936  53.2154 195.9258 0001124  88.8314 271.2807 15.08844200 49807,6917.868,95.437,540.51,538.955,0.0
53936.0,STARLINK-4791,PAYLOAD,2023-08-13 15:13:56,15.08838982,0.0001126,53.2155,194.439,89.8069,270.3052,2.78e-05,1.55e-06,0.0,0 STARLINK-4791,1 53936U 22119BC  23225.63467883  .00000155  00000-0  27800-4 0  9992,2 53936  53.2155 194.4390 0001126  89.8069 270.3052 15.08838982 49856,6917.884,95.438,540.527,538.97,0.0
53936.0,STARLINK-4791,PAYLOAD,2023-08-14 00:46:15,15.08831593,0.00011,53.2154,192.6546,90.5608,269.551,4.7804e-05,4.73e-06,0.0,0 STARLINK-4791,1 53936U 22119BC  23226.03212393  .00000473  00000-0  47804-4 0  9990,2 53936  53.2154 192.6546 0001100  90.5608 269.5510 15.08831593 49915,6917.906,95.438,540.532,539.01,0.0
53936.0,STARLINK-4791,PAYLOAD,2023-08-14 07:07:47,15.08840981,0.0001156,53.2154,191.4653,89.3903,270.7222,7.1524e-05,8.51e-06,0.0,0 STARLINK-4791,1 53936U 22119BC  23226.29707802  .00000851  00000-0  71524-4 0  9998,2 53936  53.2154 191.4653 0001156  89.3903 270.7222 15.08840981 49955,6917.877,95.437,540.542,538.943,0.0
53936.0,STARLINK-4791,PAYLOAD,2023-08-14 15:04:43,15.0883413,0.0001109,53.2143,189.9782,88.5847,271.5272,6.2625e-05,7.09e-06,0.0,0 STARLINK-4791,1 53936U 22119BC  23226.62828306  .00000709  00000-0  62625-4 0  9992,2 53936  53.2143 189.9782 0001109  88.5847 271.5272 15.08834130 50005,6917.898,95.438,540.531,538.996,0.0
53936.0,STARLINK-4791,PAYLOAD,2023-08-15 02:12:25,15.08842357,0.0001395,53.2143,187.8962,88.3058,271.8093,1.5343e-05,-4.4e-07,0.0,0 STARLINK-4791,1 53936U 22119BC  23227.09195986 -.00000044  00000-0  15343-4 0  9993,2 53936  53.2143 187.8962 0001395  88.3058 271.8093 15.08842357 50072,6917.873,95.437,540.703,538.773,0.0
53936.0,STARLINK-4791,PAYLOAD,2023-08-16 03:38:34,15.08854097,0.0001893,53.2155,183.1371,89.8393,270.2816,-5.5876e-05,-1.178e-05,0.0,0 STARLINK-4791,1 53936U 22119BC  23228.15179328 -.00001178  00000-0 -55876-4 0  9998,2 53936  53.2155 183.1371 0001893  89.8393 270.2816 15.08854097 50237,6917.837,95.437,541.012,538.393,0.0
53936.0,STARLINK-4791,PAYLOAD,2023-08-16 06:49:23,15.08741103,0.0001814,53.2161,182.5425,89.28,270.84,0.0014405,0.0002265,0.0,0 STARLINK-4791,1 53936U 22119BC  23228.28429779  .00022650  00000-0  14405-2 0  9997,2 53936  53.2161 182.5425 0001814  89.2800 270.8400 15.08741103 50257,6918.183,95.444,541.303,538.793,0.0
53936.0,STARLINK-4791,PAYLOAD,2023-08-17 01:53:59,15.08836785,0.0001436,53.2165,178.9732,102.3066,257.8087,0.00012545,1.709e-05,0.0,0 STARLINK-4791,1 53936U 22119BC  23229.07915798  .00001709  00000-0  12545-3 0  9992,2 53936  53.2165 178.9732 0001436 102.3066 257.8087 15.08836785 50372,6917.89,95.438,540.749,538.762,0.0
53936.0,STARLINK-4791,PAYLOAD,2023-08-17 06:40:08,15.08847248,0.000127,53.2162,178.0837,87.4287,272.685,4.6519e-05,4.53e-06,0.0,0 STARLINK-4791,1 53936U 22119BC  23229.27787336  .00000453  00000-0  46519-4 0  9993,2 53936  53.2162 178.0837 0001270  87.4287 272.6850 15.08847248 50403,6917.858,95.437,540.602,538.845,0.0
53936.0,STARLINK-4791,PAYLOAD,2023-08-18 03:20:09,15.08841135,0.0001244,53.2153,174.2171,92.9486,267.1648,3.3415e-05,2.44e-06,0.0,0 STARLINK-4791,1 53936U 22119BC  23230.13899795  .00000244  00000-0  33415-4 0  9992,2 53936  53.2153 174.2171 0001244  92.9486 267.1648 15.08841135 50532,6917.877,95.437,540.603,538.881,0.0
53936.0,STARLINK-4791,PAYLOAD,2023-08-19 01:35:34,15.08831973,0.0001389,53.2168,170.055,90.6029,269.5122,-4.3585e-05,-9.81e-06,0.0,0 STARLINK-4791,1 53936U 22119BC  23231.06636901 -.00000981  00000-0 -43585-4 0  9992,2 53936  53.2168 170.0550 0001389  90.6029 269.5122 15.08831973 50678,6917.905,95.438,540.731,538.809,0.0
